NORAD_CAT_ID,OBJECT_NAME,OBJECT_TYPE,EPOCH,MEAN_MOTION,ECCENTRICITY,INCLINATION,RA_OF_ASC_NODE,ARG_OF_PERICENTER,MEAN_ANOMALY,BSTAR,MEAN_MOTION_DOT,MEAN_MOTION_DDOT,TLE_LINE0,TLE_LINE1,TLE_LINE2,SEMIMAJOR_AXIS,PERIOD,APOGEE,PERIGEE,DECAYED
53871.0,STARLINK-4740,PAYLOAD,2023-01-18 16:50:40,15.73224726,0.0002643,53.2154,16.6922,295.4939,64.5807,-1.6042e-07,-6.45e-06,0.0,0 STARLINK-4740,1 53871U 22114BF  23018.70185909 -.00000645  00000-0 -16042-6 0  9993,2 53871  53.2154  16.6922 0002643 295.4939  64.5807 15.73224726 20278,6727.825,91.532,351.468,347.912,0.0
53871.0,STARLINK-4740,PAYLOAD,2023-01-19 06:34:01,15.73200492,0.0003171999999999,53.2158,13.8679,306.5352,53.5376,-7.2024e-07,-7.24e-06,0.0,0 STARLINK-4740,1 53871U 22114BF  23019.27363168 -.00000724  00000-0 -72024-6 0  9991,2 53871  53.2158  13.8679 0003172 306.5352  53.5376 15.73200492 19812,6727.894,91.533,351.89300000000003,347.625,0.0
53871.0,STARLINK-4740,PAYLOAD,2023-01-19 09:36:58,15.73208723,0.0002516,53.2155,13.2374,309.0738,51.0058,3.9714e-06,-6.4e-07,0.0,0 STARLINK-4740,1 53871U 22114BF  23019.40068136 -.00000064  00000-0  39714-5 0  9997,2 53871  53.2155  13.2374 0002516 309.0738  51.0058 15.73208723 19839,6727.87,91.533,351.42800000000005,348.043,0.0
53871.0,STARLINK-4740,PAYLOAD,2023-01-20 08:29:10,15.73220896,0.0001826,53.2162,8.5217,300.8784,59.2057,-6.465700000000001e-06,-1.529e-05,0.0,0 STARLINK-4740,1 53871U 22114BF  23020.35359403 -.00001529  00000-0 -64657-5 0  9995,2 53871  53.2162   8.5217 0001826 300.8784  59.2057 15.73220896 20536,6727.835999999999,91.532,350.92900000000003,348.472,0.0
53871.0,STARLINK-4740,PAYLOAD,2023-01-21 05:49:51,15.73243951,0.0001262,53.2164,4.1191,300.1351,59.9544,7.0985e-05,9.372e-05,0.0,0 STARLINK-4740,1 53871U 22114BF  23021.24295885  .00009372  00000-0  70985-4 0  9999,2 53871  53.2164   4.1191 0001262 300.1351  59.9544 15.73243951 20128,6727.77,91.531,350.48400000000004,348.786,0.0
53871.0,STARLINK-4740,PAYLOAD,2023-01-21 10:23:06,15.74728901,0.0008892,53.2153,3.1651,284.6657,75.3378,0.0023094,0.00361353,0.0,0 STARLINK-4740,1 53871U 22114BF  23021.43271961  .00361353  00000-0  23094-2 0  9996,2 53871  53.2153   3.1651 0008892 284.6657  75.3378 15.74728901 20151,6723.54,91.444,351.38300000000004,339.426,0.0
53871.0,STARLINK-4740,PAYLOAD,2023-01-22 00:00:00,15.73156349,6.38e-05,53.2142,0.3706,247.6163,82.3702,0.00063858,0.00089794,0.0,0 STARLINK-4740,1 53871U 22114BF  23022.00001157  .00089794  00000-0  63858-3 0  9997,2 53871  53.2142   0.3706 0000638 247.6163  82.3702 15.73156349 20249,6728.02,91.536,350.314,349.455,0.0
53871.0,STARLINK-4740,PAYLOAD,2023-01-22 07:45:00,15.73231675,4.89e-05,53.2148,358.7675,346.0055,14.0952,-3.097e-05,-4.968e-05,0.0,0 STARLINK-4740,1 53871U 22114BF  23022.32291795 -.00004968  00000-0 -30970-4 0  9993,2 53871  53.2148 358.7675 0000489 346.0055  14.0952 15.73231675 20298,6727.805,91.531,349.999,349.341,0.0
53871.0,STARLINK-4740,PAYLOAD,2023-01-22 15:22:24,15.73210708,0.0001159999999999,53.2149,357.1975,269.4347,90.6541,-1.4012e-05,-2.586e-05,0.0,0 STARLINK-4740,1 53871U 22114BF  23022.64056674 -.00002586  00000-0 -14012-4 0  9996,2 53871  53.2149 357.1975 0001160 269.4347  90.6541 15.73210708 20348,6727.865,91.533,350.51,348.949,0.0
53871.0,STARLINK-4740,PAYLOAD,2023-01-23 09:40:17,15.73163585,5.99e-05,53.2157,353.4284,280.0857,80.0096,-4.7597e-05,-7.282e-05,0.0,0 STARLINK-4740,1 53871U 22114BF  23023.40298473 -.00007282  00000-0 -47597-4 0  9998,2 53871  53.2157 353.4284 0000599 280.0857  80.0096 15.73163585 20460,6727.999,91.535,350.267,349.461,0.0
53871.0,STARLINK-4740,PAYLOAD,2023-01-24 02:30:40,15.70197785,0.000444,53.2143,349.98900000000003,97.2723,262.8801,-0.0025486,-0.00304676,0.0,0 STARLINK-4740,1 53871U 22114BF  23024.10463997 -.00304676  00000-0 -25486-2 0  9999,2 53871  53.2143 349.9890 0004440  97.2723 262.8801 15.70197785 20579,6736.468000000001,91.708,361.324,355.342,0.0
53871.0,STARLINK-4740,PAYLOAD,2023-01-24 14:00:01,15.686303099999998,0.0001246,53.2142,347.61800000000005,79.154,114.5163,-0.011089,-0.0116229,0.0,0 STARLINK-4740,1 53871U 22114BF  23024.58334491 -.01162290  00000-0 -11089-1 0  9995,2 53871  53.2142 347.6180 0001246  79.1540 114.5163 15.68630310 20658,6740.955,91.8,363.66,361.98,0.0
53871.0,STARLINK-4740,PAYLOAD,2023-01-25 14:00:01,15.66181844,0.0001109,53.2136,342.7118,83.5184,356.0083,-0.012066,-0.01145541,0.0,0 STARLINK-4740,1 53871U 22114BF  23025.58334491 -.01145541  00000-0 -12066-1 0  9992,2 53871  53.2136 342.7118 0001109  83.5184 356.0083 15.66181844  1305,6747.979,91.943,370.592,369.096,0.0
53871.0,STARLINK-4740,PAYLOAD,2023-01-25 16:00:01,15.65950009,0.000122,53.2137,342.3031,91.3893,98.3021,-0.0115959999999999,-0.01078478,0.0,0 STARLINK-4740,1 53871U 22114BF  23025.66668981 -.01078478  00000-0 -11596-1 0  9996,2 53871  53.2137 342.3031 0001220  91.3893  98.3021 15.65950009 20826,6748.645,91.957,371.333,369.687,0.0
53871.0,STARLINK-4740,PAYLOAD,2023-01-25 22:00:00,15.65385216,0.0001361,53.2138,341.0798,95.1705,64.3414,-0.01264,-0.01160519,0.0,0 STARLINK-4740,1 53871U 22114BF  23025.91667824 -.01160519  00000-0 -12640-1 0  9998,2 53871  53.2138 341.0798 0001361  95.1705  64.3414 15.65385216  1306,6750.268,91.99,373.052,371.214,0.0
53871.0,STARLINK-4740,PAYLOAD,2023-01-26 10:00:00,15.64166062,0.0001217,53.2135,338.6377,78.8968,18.7742,-0.013318,-0.01164005,0.0,0 STARLINK-4740,1 53871U 22114BF  23026.41667824 -.01164005  00000-0 -13318-1 0  9991,2 53871  53.2135 338.6377 0001217  78.8968  18.7742 15.64166062 20940,6753.775,92.062,376.462,374.818,0.0
53871.0,STARLINK-4740,PAYLOAD,2023-01-26 14:00:01,15.63740866,0.0001131,53.2137,337.8231,99.2225,217.3578,-0.0133009999999999,-0.01144955,0.0,0 STARLINK-4740,1 53871U 22114BF  23026.58334491 -.01144955  00000-0 -13301-1 0  9994,2 53871  53.2137 337.8231 0001131  99.2225 217.3578 15.63740866  1302,6754.999,92.087,377.628,376.1,0.0
53871.0,STARLINK-4740,PAYLOAD,2023-01-27 14:00:01,15.61291912,0.0001245,53.2129,332.9522,96.77,88.0657,-0.014434,-0.01129958,0.0,0 STARLINK-4740,1 53871U 22114BF  23027.58334491 -.01129958  00000-0 -14434-1 0  9999,2 53871  53.2129 332.9522 0001245  96.7700  88.0657 15.61291912  1300,6762.061,92.231,384.768,383.084,0.0
53871.0,STARLINK-4740,PAYLOAD,2023-01-27 16:00:00,15.61070392,0.0001181,53.2128,332.5468,108.1367,185.3281,-0.014103,-0.01097779,0.0,0 STARLINK-4740,1 53871U 22114BF  23027.66667824 -.01097779  00000-0 -14103-1 0  9995,2 53871  53.2128 332.5468 0001181 108.1367 185.3281 15.61070392 21134,6762.701,92.244,385.365,383.767,0.0
53871.0,STARLINK-4740,PAYLOAD,2023-01-27 22:00:00,15.60502517,0.0001294,53.2129,331.3325,111.0022,147.9502,-0.0153009999999999,-0.01158639,0.0,0 STARLINK-4740,1 53871U 22114BF  23027.91667824 -.01158639  00000-0 -15301-1 0  9997,2 53871  53.2129 331.3325 0001294 111.0022 147.9502 15.60502517  1305,6764.342,92.278,387.082,385.331,0.0
53871.0,STARLINK-4740,PAYLOAD,2023-01-28 08:00:01,15.5946621,0.0001122,53.2126,329.3121,86.6768,353.5658,-0.015425,-0.01125661,0.0,0 STARLINK-4740,1 53871U 22114BF  23028.33334491 -.01125661  00000-0 -15425-1 0  9991,2 53871  53.2126 329.3121 0001122  86.6768 353.5658 15.59466210 21246,6767.338000000001,92.339,389.962,388.444,0.0
53871.0,STARLINK-4740,PAYLOAD,2023-01-28 14:00:01,15.58847758,0.0001047,53.213,328.0988,99.0267,305.2631,-0.015799,-0.0112593,0.0,0 STARLINK-4740,1 53871U 22114BF  23028.58334491 -.01125930  00000-0 -15799-1 0  9991,2 53871  53.2130 328.0988 0001047  99.0267 305.2631 15.58847758  1305,6769.128,92.376,391.701,390.284,0.0
53871.0,STARLINK-4740,PAYLOAD,2023-01-28 22:00:00,15.58062735,0.0001211,53.2132,326.4849,90.8984,24.5735,-0.016892,-0.01164292,0.0,0 STARLINK-4740,1 53871U 22114BF  23028.91667824 -.01164292  00000-0 -16892-1 0  9996,2 53871  53.2132 326.4849 0001211  90.8984  24.5735 15.58062735  1303,6771.401,92.422,394.086,392.446,0.0
53871.0,STARLINK-4740,PAYLOAD,2023-01-29 00:00:00,15.57854124,0.0001282,53.2131,326.0824,92.7189,130.4032,-0.017046,-0.01165539,0.0,0 STARLINK-4740,1 53871U 22114BF  23029.00001157 -.01165539  00000-0 -17046-1 0  9995,2 53871  53.2131 326.0824 0001282  92.7189 130.4032 15.57854124 21340,6772.006,92.435,394.739,393.003,0.0
53871.0,STARLINK-4740,PAYLOAD,2023-01-29 22:00:01,15.55636173,0.0001037,53.2131,321.6554,102.1951,221.0549,-0.018927,-0.01188088,0.0,0 STARLINK-4740,1 53871U 22114BF  23029.91668981 -.01188088  00000-0 -18927-1 0  9992,2 53871  53.2131 321.6554 0001037 102.1951 221.0549 15.55636173  1306,6778.441,92.567,401.009,399.603,0.0
53871.0,STARLINK-4740,PAYLOAD,2023-01-30 10:00:00,15.54418338,0.0001159,53.2122,319.2479,92.6284,151.1152,-0.019944,-0.01195832,0.0,0 STARLINK-4740,1 53871U 22114BF  23030.41667824 -.01195832  00000-0 -19944-1 0  9999,2 53871  53.2122 319.2479 0001159  92.6284 151.1152 15.54418338 21565,6781.981,92.639,404.632,403.06,0.0
53871.0,STARLINK-4740,PAYLOAD,2023-01-30 14:00:01,15.53947024,0.0001079,53.2125,318.4452,91.4806,5.3171,-0.018355,-0.01092193,0.0,0 STARLINK-4740,1 53871U 22114BF  23030.58334491 -.01092193  00000-0 -18355-1 0  9999,2 53871  53.2125 318.4452 0001079  91.4806   5.3171 15.53947024  1307,6783.352,92.667,405.949,404.485,0.0
53871.0,STARLINK-4740,PAYLOAD,2023-01-31 00:00:00,15.52953735,0.0001136,53.2125,316.4442,89.7595,178.5376,-0.019882,-0.01136134,0.0,0 STARLINK-4740,1 53871U 22114BF  23031.00001157 -.01136134  00000-0 -19882-1 0  9997,2 53871  53.2125 316.4442 0001136  89.7595 178.5376 15.52953735  1308,6786.244,92.727,408.88,407.338,0.0
53871.0,STARLINK-4740,PAYLOAD,2023-01-31 02:00:01,15.52739154,0.0001064,53.2125,316.0444,76.1877,298.2283,-0.019594,-0.01113322,0.0,0 STARLINK-4740,1 53871U 22114BF  23031.08334491 -.01113322  00000-0 -19594-1 0  9999,2 53871  53.2125 316.0444 0001064  76.1877 298.2283 15.52739154 21664,6786.87,92.739,409.457,408.012,0.0
